CCSDS_OMM_VERS = 2.0
CREATION_DATE  = 
ORIGINATOR     = 

OBJECT_NAME    = AQUA
OBJECT_ID      = 2002-022A
CENTER_NAME    = EARTH
REF_FRAME      = TEME
TIME_SYSTEM    = UTC
MEAN_ELEMENT_THEORY = SGP/SGP4

EPOCH          = 2026-03-11T22:36:07.338240
MEAN_MOTION    = 14.61982815
ECCENTRICITY   = .00005615
INCLINATION    = 98.4177
RA_OF_ASC_NODE = 38.3477
ARG_OF_PERICENTER = 89.2450
MEAN_ANOMALY   = 324.7525

EPHEMERIS_TYPE = 0
CLASSIFICATION_TYPE = U
NORAD_CAT_ID   = 27424
ELEMENT_SET_NO = 999
REV_AT_EPOCH   = 26906
BSTAR          = .24717011E-3
MEAN_MOTION_DOT = .1189E-4
MEAN_MOTION_DDOT = 0

CCSDS_OMM_VERS = 2.0
CREATION_DATE  = 
ORIGINATOR     = 

OBJECT_NAME    = CZ-4B R/B
OBJECT_ID      = 2002-024C
CENTER_NAME    = EARTH
REF_FRAME      = TEME
TIME_SYSTEM    = UTC
MEAN_ELEMENT_THEORY = SGP/SGP4

EPOCH          = 2026-03-11T18:43:16.180032
MEAN_MOTION    = 14.14547983
ECCENTRICITY   = .00503841
INCLINATION    = 98.8835
RA_OF_ASC_NODE = 124.1762
ARG_OF_PERICENTER = 18.2883
MEAN_ANOMALY   = 92.6866

EPHEMERIS_TYPE = 0
CLASSIFICATION_TYPE = U
NORAD_CAT_ID   = 27432
ELEMENT_SET_NO = 999
REV_AT_EPOCH   = 22953
BSTAR          = .47285151E-4
MEAN_MOTION_DOT = .47E-6
MEAN_MOTION_DDOT = 0

CCSDS_OMM_VERS = 2.0
CREATION_DATE  = 
ORIGINATOR     = 

OBJECT_NAME    = MIDORI II (ADEOS-II)
OBJECT_ID      = 2002-056A
CENTER_NAME    = EARTH
REF_FRAME      = TEME
TIME_SYSTEM    = UTC
MEAN_ELEMENT_THEORY = SGP/SGP4

EPOCH          = 2026-03-11T21:41:32.423136
MEAN_MOTION    = 14.29287029
ECCENTRICITY   = .00015085
INCLINATION    = 98.7769
RA_OF_ASC_NODE = 29.3966
ARG_OF_PERICENTER = 40.3821
MEAN_ANOMALY   = 319.7472

EPHEMERIS_TYPE = 0
CLASSIFICATION_TYPE = U
NORAD_CAT_ID   = 27597
ELEMENT_SET_NO = 999
REV_AT_EPOCH   = 21061
BSTAR          = .16071236E-3
MEAN_MOTION_DOT = .364E-5
MEAN_MOTION_DDOT = 0

CCSDS_OMM_VERS = 2.0
CREATION_DATE  = 
ORIGINATOR     = 

OBJECT_NAME    = H-2A R/B
OBJECT_ID      = 2002-056E
CENTER_NAME    = EARTH
REF_FRAME      = TEME
TIME_SYSTEM    = UTC
MEAN_ELEMENT_THEORY = SGP/SGP4

EPOCH          = 2026-03-11T20:52:15.156768
MEAN_MOTION    = 14.33762249
ECCENTRICITY   = .00706322
INCLINATION    = 98.3205
RA_OF_ASC_NODE = 31.1522
ARG_OF_PERICENTER = 154.2148
MEAN_ANOMALY   = 261.2108

EPHEMERIS_TYPE = 0
CLASSIFICATION_TYPE = U
NORAD_CAT_ID   = 27601
ELEMENT_SET_NO = 999
REV_AT_EPOCH   = 21442
BSTAR          = .12062239E-3
MEAN_MOTION_DOT = .303E-5
MEAN_MOTION_DDOT = 0

CCSDS_OMM_VERS = 2.0
CREATION_DATE  = 
ORIGINATOR     = 

OBJECT_NAME    = CZ-4B R/B
OBJECT_ID      = 2003-049C
CENTER_NAME    = EARTH
REF_FRAME      = TEME
TIME_SYSTEM    = UTC
MEAN_ELEMENT_THEORY = SGP/SGP4

EPOCH          = 2026-03-11T22:16:13.130400
MEAN_MOTION    = 14.55022392
ECCENTRICITY   = .00473337
INCLINATION    = 98.6879
RA_OF_ASC_NODE = 65.9205
ARG_OF_PERICENTER = 223.9125
MEAN_ANOMALY   = 135.8305

EPHEMERIS_TYPE = 0
CLASSIFICATION_TYPE = U
NORAD_CAT_ID   = 28059
ELEMENT_SET_NO = 999
REV_AT_EPOCH   = 18692
BSTAR          = .11008913E-3
MEAN_MOTION_DOT = .429E-5
MEAN_MOTION_DDOT = 0

CCSDS_OMM_VERS = 2.0
CREATION_DATE  = 
ORIGINATOR     = 

OBJECT_NAME    = CZ-2C R/B
OBJECT_ID      = 2004-012C
CENTER_NAME    = EARTH
REF_FRAME      = TEME
TIME_SYSTEM    = UTC
MEAN_ELEMENT_THEORY = SGP/SGP4

EPOCH          = 2026-03-11T17:16:17.757408
MEAN_MOTION    = 15.64774872
ECCENTRICITY   = .00129323
INCLINATION    = 97.7222
RA_OF_ASC_NODE = 136.2046
ARG_OF_PERICENTER = 301.4679
MEAN_ANOMALY   = 58.5315

EPHEMERIS_TYPE = 0
CLASSIFICATION_TYPE = U
NORAD_CAT_ID   = 28222
ELEMENT_SET_NO = 999
REV_AT_EPOCH   = 20459
BSTAR          = .66078902E-3
MEAN_MOTION_DOT = .64754E-3
MEAN_MOTION_DDOT = 0

CCSDS_OMM_VERS = 2.0
CREATION_DATE  = 
ORIGINATOR     = 

OBJECT_NAME    = SL-16 R/B
OBJECT_ID      = 2004-021B
CENTER_NAME    = EARTH
REF_FRAME      = TEME
TIME_SYSTEM    = UTC
MEAN_ELEMENT_THEORY = SGP/SGP4

EPOCH          = 2026-03-11T20:40:10.851744
MEAN_MOTION    = 14.14597110
ECCENTRICITY   = .00041759
INCLINATION    = 70.9996
RA_OF_ASC_NODE = 227.9350
ARG_OF_PERICENTER = 6.1397
MEAN_ANOMALY   = 353.9776

EPHEMERIS_TYPE = 0
CLASSIFICATION_TYPE = U
NORAD_CAT_ID   = 28353
ELEMENT_SET_NO = 999
REV_AT_EPOCH   = 12314
BSTAR          = -.11319916E-3
MEAN_MOTION_DOT = -.265E-5
MEAN_MOTION_DDOT = 0

CCSDS_OMM_VERS = 2.0
CREATION_DATE  = 
ORIGINATOR     = 

OBJECT_NAME    = CZ-4B R/B
OBJECT_ID      = 2004-035C
CENTER_NAME    = EARTH
REF_FRAME      = TEME
TIME_SYSTEM    = UTC
MEAN_ELEMENT_THEORY = SGP/SGP4

EPOCH          = 2026-03-11T14:39:22.791744
MEAN_MOTION    = 15.29101543
ECCENTRICITY   = .00307434
INCLINATION    = 97.3502
RA_OF_ASC_NODE = 104.8303
ARG_OF_PERICENTER = 324.4114
MEAN_ANOMALY   = 35.5075

EPHEMERIS_TYPE = 0
CLASSIFICATION_TYPE = U
NORAD_CAT_ID   = 28415
ELEMENT_SET_NO = 999
REV_AT_EPOCH   = 18020
BSTAR          = .30918544E-3
MEAN_MOTION_DOT = .8783E-4
MEAN_MOTION_DDOT = 0

CCSDS_OMM_VERS = 2.0
CREATION_DATE  = 
ORIGINATOR     = 

OBJECT_NAME    = CZ-2C R/B
OBJECT_ID      = 2004-046B
CENTER_NAME    = EARTH
REF_FRAME      = TEME
TIME_SYSTEM    = UTC
MEAN_ELEMENT_THEORY = SGP/SGP4

EPOCH          = 2026-03-11T17:30:18.008640
MEAN_MOTION    = 14.26992768
ECCENTRICITY   = .01399793
INCLINATION    = 98.1980
RA_OF_ASC_NODE = 345.5864
ARG_OF_PERICENTER = 148.4396
MEAN_ANOMALY   = 212.5277

EPHEMERIS_TYPE = 0
CLASSIFICATION_TYPE = U
NORAD_CAT_ID   = 28480
ELEMENT_SET_NO = 999
REV_AT_EPOCH   = 10879
BSTAR          = .62460128E-4
MEAN_MOTION_DOT = .128E-5
MEAN_MOTION_DDOT = 0

CCSDS_OMM_VERS = 2.0
CREATION_DATE  = 
ORIGINATOR     = 

OBJECT_NAME    = ARIANE 5 R/B
OBJECT_ID      = 2004-049H
CENTER_NAME    = EARTH
REF_FRAME      = TEME
TIME_SYSTEM    = UTC
MEAN_ELEMENT_THEORY = SGP/SGP4

EPOCH          = 2026-03-11T22:09:22.595616
MEAN_MOTION    = 14.85270195
ECCENTRICITY   = .00837861
INCLINATION    = 98.2630
RA_OF_ASC_NODE = 239.4637
ARG_OF_PERICENTER = 344.6634
MEAN_ANOMALY   = 15.2042

EPHEMERIS_TYPE = 0
CLASSIFICATION_TYPE = U
NORAD_CAT_ID   = 28499
ELEMENT_SET_NO = 999
REV_AT_EPOCH   = 14612
BSTAR          = .10156596E-3
MEAN_MOTION_DOT = .863E-5
MEAN_MOTION_DDOT = 0

CCSDS_OMM_VERS = 2.0
CREATION_DATE  = 
ORIGINATOR     = 

OBJECT_NAME    = CZ-2D R/B
OBJECT_ID      = 2005-024B
CENTER_NAME    = EARTH
REF_FRAME      = TEME
TIME_SYSTEM    = UTC
MEAN_ELEMENT_THEORY = SGP/SGP4

EPOCH          = 2026-03-11T22:53:53.128896
MEAN_MOTION    = 15.60370464
ECCENTRICITY   = .0005511
INCLINATION    = 97.3602
RA_OF_ASC_NODE = 86.1836
ARG_OF_PERICENTER = 40.4707
MEAN_ANOMALY   = 319.6959

EPHEMERIS_TYPE = 0
CLASSIFICATION_TYPE = U
NORAD_CAT_ID   = 28738
ELEMENT_SET_NO = 999
REV_AT_EPOCH   = 14013
BSTAR          = .55445291E-3
MEAN_MOTION_DOT = .45516E-3
MEAN_MOTION_DDOT = 0

CCSDS_OMM_VERS = 2.0
CREATION_DATE  = 
ORIGINATOR     = 

OBJECT_NAME    = ALOS (DAICHI)
OBJECT_ID      = 2006-002A
CENTER_NAME    = EARTH
REF_FRAME      = TEME
TIME_SYSTEM    = UTC
MEAN_ELEMENT_THEORY = SGP/SGP4

EPOCH          = 2026-03-11T21:15:17.330400
MEAN_MOTION    = 14.69818058
ECCENTRICITY   = .00008528
INCLINATION    = 98.1220
RA_OF_ASC_NODE = 26.8300
ARG_OF_PERICENTER = 60.0305
MEAN_ANOMALY   = 300.0985

EPHEMERIS_TYPE = 0
CLASSIFICATION_TYPE = U
NORAD_CAT_ID   = 28931
ELEMENT_SET_NO = 999
REV_AT_EPOCH   = 7380
BSTAR          = .28022633E-3
MEAN_MOTION_DOT = .1624E-4
MEAN_MOTION_DDOT = 0

